STARLINK-35537          
1 66234U 25245A   25331.91682186  .00058821  00000+0  14680-2 0  9998
2 66234  53.1608  39.5341 0001488  79.0394 281.0778 15.39644480  5635
STARLINK-35541          
1 66235U 25245B   25331.46208656  .00047137  00000+0  11810-2 0  9995
2 66235  53.1605  41.6719 0001057 101.3788 258.7336 15.39623202  5511
STARLINK-35454          
1 66236U 25245C   25332.00002315  .00064345  00000+0  16078-2 0  9992
2 66236  53.1604  39.0885 0001172  90.1547  37.1601 15.39568314  5574
STARLINK-35557          
1 66237U 25245D   25332.00002315  .00064010  00000+0  16000-2 0  9997
2 66237  53.1605  39.0845 0001721  52.2746  76.9015 15.39559574  5738
STARLINK-35556          
1 66238U 25245E   25332.00002315  .00063677  00000+0  15915-2 0  9990
2 66238  53.1604  39.0364 0001305  90.2931  62.7900 15.39565840  5739
STARLINK-35554          
1 66239U 25245F   25332.00002315  .00058854  00000+0  14720-2 0  9995
2 66239  53.1604  39.0329 0001512  93.2746  61.6077 15.39579131  5571
STARLINK-35546          
1 66240U 25245G   25332.00002315  .00064671  00000+0  16157-2 0  9997
2 66240  53.1603  38.9855 0001403  92.0836  86.7448 15.39569969  5736
STARLINK-35497          
1 66241U 25245H   25332.00002315  .00061774  00000+0  15447-2 0  9990
2 66241  53.1602  38.9820 0001323  98.6482  82.0303 15.39563672  5686
STARLINK-35480          
1 66242U 25245J   25332.00002315  .00068214  00000+0  17036-2 0  9993
2 66242  53.1597  38.8826 0001354 100.2715 130.0799 15.39557798  5739
STARLINK-35495          
1 66243U 25245K   25332.00002315  .00065028  00000+0  16239-2 0  9998
2 66243  53.1597  38.9349 0001435  98.4806 106.0323 15.39582195  5735
STARLINK-35517          
1 66244U 25245L   25332.00002315  .00065274  00000+0  16307-2 0  9998
2 66244  53.1597  38.9298 0001457  94.5022 111.9048 15.39568331  5522
STARLINK-35503          
1 66245U 25245M   25332.00002315  .00070407  00000+0  17572-2 0  9998
2 66245  53.1597  38.8772 0001687  77.3344 154.8321 15.39562672  5689
