CCSDS_OMM_VERS = 2.0
CREATION_DATE  = 
ORIGINATOR     = 

OBJECT_NAME    = STARLINK-35537
OBJECT_ID      = 2025-245A
CENTER_NAME    = EARTH
REF_FRAME      = TEME
TIME_SYSTEM    = UTC
MEAN_ELEMENT_THEORY = SGP/SGP4

EPOCH          = 2025-11-27T22:00:13.408704
MEAN_MOTION    = 15.39644480
ECCENTRICITY   = .00014889
INCLINATION    = 53.1608
RA_OF_ASC_NODE = 39.5341
ARG_OF_PERICENTER = 79.0394
MEAN_ANOMALY   = 281.0778

EPHEMERIS_TYPE = 0
CLASSIFICATION_TYPE = U
NORAD_CAT_ID   = 66234
ELEMENT_SET_NO = 999
REV_AT_EPOCH   = 563
BSTAR          = .14680026E-2
MEAN_MOTION_DOT = .58821E-3
MEAN_MOTION_DDOT = 0

CCSDS_OMM_VERS = 2.0
CREATION_DATE  = 
ORIGINATOR     = 

OBJECT_NAME    = STARLINK-35541
OBJECT_ID      = 2025-245B
CENTER_NAME    = EARTH
REF_FRAME      = TEME
TIME_SYSTEM    = UTC
MEAN_ELEMENT_THEORY = SGP/SGP4

EPOCH          = 2025-11-27T11:05:24.278784
MEAN_MOTION    = 15.39623202
ECCENTRICITY   = .00010578
INCLINATION    = 53.1605
RA_OF_ASC_NODE = 41.6719
ARG_OF_PERICENTER = 101.3788
MEAN_ANOMALY   = 258.7336

EPHEMERIS_TYPE = 0
CLASSIFICATION_TYPE = U
NORAD_CAT_ID   = 66235
ELEMENT_SET_NO = 999
REV_AT_EPOCH   = 551
BSTAR          = .1181011E-2
MEAN_MOTION_DOT = .47137E-3
MEAN_MOTION_DDOT = 0

CCSDS_OMM_VERS = 2.0
CREATION_DATE  = 
ORIGINATOR     = 

OBJECT_NAME    = STARLINK-35454
OBJECT_ID      = 2025-245C
CENTER_NAME    = EARTH
REF_FRAME      = TEME
TIME_SYSTEM    = UTC
MEAN_ELEMENT_THEORY = SGP/SGP4

EPOCH          = 2025-11-28T00:00:02.000160
MEAN_MOTION    = 15.39568314
ECCENTRICITY   = .00011723
INCLINATION    = 53.1604
RA_OF_ASC_NODE = 39.0885
ARG_OF_PERICENTER = 90.1547
MEAN_ANOMALY   = 37.1601

EPHEMERIS_TYPE = 0
CLASSIFICATION_TYPE = U
NORAD_CAT_ID   = 66236
ELEMENT_SET_NO = 999
REV_AT_EPOCH   = 557
BSTAR          = .16077957E-2
MEAN_MOTION_DOT = .64345E-3
MEAN_MOTION_DDOT = 0

CCSDS_OMM_VERS = 2.0
CREATION_DATE  = 
ORIGINATOR     = 

OBJECT_NAME    = STARLINK-35557
OBJECT_ID      = 2025-245D
CENTER_NAME    = EARTH
REF_FRAME      = TEME
TIME_SYSTEM    = UTC
MEAN_ELEMENT_THEORY = SGP/SGP4

EPOCH          = 2025-11-28T00:00:02.000160
MEAN_MOTION    = 15.39559574
ECCENTRICITY   = .0001721
INCLINATION    = 53.1605
RA_OF_ASC_NODE = 39.0845
ARG_OF_PERICENTER = 52.2746
MEAN_ANOMALY   = 76.9015

EPHEMERIS_TYPE = 0
CLASSIFICATION_TYPE = U
NORAD_CAT_ID   = 66237
ELEMENT_SET_NO = 999
REV_AT_EPOCH   = 573
BSTAR          = .1599979E-2
MEAN_MOTION_DOT = .6401E-3
MEAN_MOTION_DDOT = 0

CCSDS_OMM_VERS = 2.0
CREATION_DATE  = 
ORIGINATOR     = 

OBJECT_NAME    = STARLINK-35556
OBJECT_ID      = 2025-245E
CENTER_NAME    = EARTH
REF_FRAME      = TEME
TIME_SYSTEM    = UTC
MEAN_ELEMENT_THEORY = SGP/SGP4

EPOCH          = 2025-11-28T00:00:02.000160
MEAN_MOTION    = 15.39565840
ECCENTRICITY   = .00013057
INCLINATION    = 53.1604
RA_OF_ASC_NODE = 39.0364
ARG_OF_PERICENTER = 90.2931
MEAN_ANOMALY   = 62.7900

EPHEMERIS_TYPE = 0
CLASSIFICATION_TYPE = U
NORAD_CAT_ID   = 66238
ELEMENT_SET_NO = 999
REV_AT_EPOCH   = 573
BSTAR          = .15914679E-2
MEAN_MOTION_DOT = .63677E-3
MEAN_MOTION_DDOT = 0

CCSDS_OMM_VERS = 2.0
CREATION_DATE  = 
ORIGINATOR     = 

OBJECT_NAME    = STARLINK-35554
OBJECT_ID      = 2025-245F
CENTER_NAME    = EARTH
REF_FRAME      = TEME
TIME_SYSTEM    = UTC
MEAN_ELEMENT_THEORY = SGP/SGP4

EPOCH          = 2025-11-28T00:00:02.000160
MEAN_MOTION    = 15.39579131
ECCENTRICITY   = .00015122
INCLINATION    = 53.1604
RA_OF_ASC_NODE = 39.0329
ARG_OF_PERICENTER = 93.2746
MEAN_ANOMALY   = 61.6077

EPHEMERIS_TYPE = 0
CLASSIFICATION_TYPE = U
NORAD_CAT_ID   = 66239
ELEMENT_SET_NO = 999
REV_AT_EPOCH   = 557
BSTAR          = .14719577E-2
MEAN_MOTION_DOT = .58854E-3
MEAN_MOTION_DDOT = 0

CCSDS_OMM_VERS = 2.0
CREATION_DATE  = 
ORIGINATOR     = 

OBJECT_NAME    = STARLINK-35546
OBJECT_ID      = 2025-245G
CENTER_NAME    = EARTH
REF_FRAME      = TEME
TIME_SYSTEM    = UTC
MEAN_ELEMENT_THEORY = SGP/SGP4

EPOCH          = 2025-11-28T00:00:02.000160
MEAN_MOTION    = 15.39569969
ECCENTRICITY   = .00014032
INCLINATION    = 53.1603
RA_OF_ASC_NODE = 38.9855
ARG_OF_PERICENTER = 92.0836
MEAN_ANOMALY   = 86.7448

EPHEMERIS_TYPE = 0
CLASSIFICATION_TYPE = U
NORAD_CAT_ID   = 66240
ELEMENT_SET_NO = 999
REV_AT_EPOCH   = 573
BSTAR          = .16157084E-2
MEAN_MOTION_DOT = .64671E-3
MEAN_MOTION_DDOT = 0

CCSDS_OMM_VERS = 2.0
CREATION_DATE  = 
ORIGINATOR     = 

OBJECT_NAME    = STARLINK-35497
OBJECT_ID      = 2025-245H
CENTER_NAME    = EARTH
REF_FRAME      = TEME
TIME_SYSTEM    = UTC
MEAN_ELEMENT_THEORY = SGP/SGP4

EPOCH          = 2025-11-28T00:00:02.000160
MEAN_MOTION    = 15.39563672
ECCENTRICITY   = .00013236
INCLINATION    = 53.1602
RA_OF_ASC_NODE = 38.9820
ARG_OF_PERICENTER = 98.6482
MEAN_ANOMALY   = 82.0303

EPHEMERIS_TYPE = 0
CLASSIFICATION_TYPE = U
NORAD_CAT_ID   = 66241
ELEMENT_SET_NO = 999
REV_AT_EPOCH   = 568
BSTAR          = .15447021E-2
MEAN_MOTION_DOT = .61774E-3
MEAN_MOTION_DDOT = 0

CCSDS_OMM_VERS = 2.0
CREATION_DATE  = 
ORIGINATOR     = 

OBJECT_NAME    = STARLINK-35480
OBJECT_ID      = 2025-245J
CENTER_NAME    = EARTH
REF_FRAME      = TEME
TIME_SYSTEM    = UTC
MEAN_ELEMENT_THEORY = SGP/SGP4

EPOCH          = 2025-11-28T00:00:02.000160
MEAN_MOTION    = 15.39557798
ECCENTRICITY   = .00013545
INCLINATION    = 53.1597
RA_OF_ASC_NODE = 38.8826
ARG_OF_PERICENTER = 100.2715
MEAN_ANOMALY   = 130.0799

EPHEMERIS_TYPE = 0
CLASSIFICATION_TYPE = U
NORAD_CAT_ID   = 66242
ELEMENT_SET_NO = 999
REV_AT_EPOCH   = 573
BSTAR          = .17035812E-2
MEAN_MOTION_DOT = .68214E-3
MEAN_MOTION_DDOT = 0

CCSDS_OMM_VERS = 2.0
CREATION_DATE  = 
ORIGINATOR     = 

OBJECT_NAME    = STARLINK-35495
OBJECT_ID      = 2025-245K
CENTER_NAME    = EARTH
REF_FRAME      = TEME
TIME_SYSTEM    = UTC
MEAN_ELEMENT_THEORY = SGP/SGP4

EPOCH          = 2025-11-28T00:00:02.000160
MEAN_MOTION    = 15.39582195
ECCENTRICITY   = .0001435
INCLINATION    = 53.1597
RA_OF_ASC_NODE = 38.9349
ARG_OF_PERICENTER = 98.4806
MEAN_ANOMALY   = 106.0323

EPHEMERIS_TYPE = 0
CLASSIFICATION_TYPE = U
NORAD_CAT_ID   = 66243
ELEMENT_SET_NO = 999
REV_AT_EPOCH   = 573
BSTAR          = .16238624E-2
MEAN_MOTION_DOT = .65028E-3
MEAN_MOTION_DDOT = 0

CCSDS_OMM_VERS = 2.0
CREATION_DATE  = 
ORIGINATOR     = 

OBJECT_NAME    = STARLINK-35517
OBJECT_ID      = 2025-245L
CENTER_NAME    = EARTH
REF_FRAME      = TEME
TIME_SYSTEM    = UTC
MEAN_ELEMENT_THEORY = SGP/SGP4

EPOCH          = 2025-11-28T00:00:02.000160
MEAN_MOTION    = 15.39568331
ECCENTRICITY   = .0001457
INCLINATION    = 53.1597
RA_OF_ASC_NODE = 38.9298
ARG_OF_PERICENTER = 94.5022
MEAN_ANOMALY   = 111.9048

EPHEMERIS_TYPE = 0
CLASSIFICATION_TYPE = U
NORAD_CAT_ID   = 66244
ELEMENT_SET_NO = 999
REV_AT_EPOCH   = 552
BSTAR          = .16306512E-2
MEAN_MOTION_DOT = .65274E-3
MEAN_MOTION_DDOT = 0

CCSDS_OMM_VERS = 2.0
CREATION_DATE  = 
ORIGINATOR     = 

OBJECT_NAME    = STARLINK-35503
OBJECT_ID      = 2025-245M
CENTER_NAME    = EARTH
REF_FRAME      = TEME
TIME_SYSTEM    = UTC
MEAN_ELEMENT_THEORY = SGP/SGP4

EPOCH          = 2025-11-28T00:00:02.000160
MEAN_MOTION    = 15.39562672
ECCENTRICITY   = .00016876
INCLINATION    = 53.1597
RA_OF_ASC_NODE = 38.8772
ARG_OF_PERICENTER = 77.3344
MEAN_ANOMALY   = 154.8321

EPHEMERIS_TYPE = 0
CLASSIFICATION_TYPE = U
NORAD_CAT_ID   = 66245
ELEMENT_SET_NO = 999
REV_AT_EPOCH   = 568
BSTAR          = .17572229E-2
MEAN_MOTION_DOT = .70407E-3
MEAN_MOTION_DDOT = 0

